[{"OBJECT_NAME":"SHIYAN-27 B","OBJECT_ID":"2025-078B","EPOCH":"2026-03-09T23:40:17.469984","MEAN_MOTION":13.57241479,"ECCENTRICITY":7.406e-5,"INCLINATION":99.6953,"RA_OF_ASC_NODE":77.6552,"ARG_OF_PERICENTER":95.0681,"MEAN_ANOMALY":265.0542,"EPHEMERIS_TYPE":0,"CLASSIFICATION_TYPE":"U","NORAD_CAT_ID":63600,"ELEMENT_SET_NO":999,"REV_AT_EPOCH":4407,"BSTAR":8.3556223e-5,"MEAN_MOTION_DOT":1.5e-7,"MEAN_MOTION_DDOT":0},{"OBJECT_NAME":"SL-14 DEB","OBJECT_ID":"1991-056BH","EPOCH":"2026-03-06T06:58:20.374176","MEAN_MOTION":13.39289459,"ECCENTRICITY":0.00884722,"INCLINATION":82.5817,"RA_OF_ASC_NODE":164.9984,"ARG_OF_PERICENTER":131.5414,"MEAN_ANOMALY":229.3353,"EPHEMERIS_TYPE":0,"CLASSIFICATION_TYPE":"U","NORAD_CAT_ID":45319,"ELEMENT_SET_NO":999,"REV_AT_EPOCH":29347,"BSTAR":0.003041541,"MEAN_MOTION_DOT":1.688e-5,"MEAN_MOTION_DDOT":0}]
